NORAD_CAT_ID,OBJECT_NAME,OBJECT_TYPE,EPOCH,MEAN_MOTION,ECCENTRICITY,INCLINATION,RA_OF_ASC_NODE,ARG_OF_PERICENTER,MEAN_ANOMALY,BSTAR,MEAN_MOTION_DOT,MEAN_MOTION_DDOT,TLE_LINE0,TLE_LINE1,TLE_LINE2,SEMIMAJOR_AXIS,PERIOD,APOGEE,PERIGEE,DECAYED
52580.0,STARLINK-3919,PAYLOAD,2024-02-18 07:02:28,15.0883762,0.0001285,53.2169,262.7915,83.5483,276.5656,3.8224e-05,3.2e-06,0.0,0 STARLINK-3919,1 52580U 22051AW  24049.29338142  .00000320  00000-0  38224-4 0  9999,2 52580  53.2169 262.7915 0001285  83.5483 276.5656 15.08837620 98090,6917.888,95.438,540.642,538.864,0.0
52580.0,STARLINK-3919,PAYLOAD,2024-02-18 19:45:32,15.08852135,0.0001277,53.2165,260.4133,76.0628,284.0506,3.3982e-05,2.53e-06,0.0,0 STARLINK-3919,1 52580U 22051AW  24049.82329316  .00000253  00000-0  33982-4 0  9992,2 52580  53.2165 260.4133 0001277  76.0628 284.0506 15.08852135 98245,6917.843,95.437,540.592,538.825,0.0
52580.0,STARLINK-3919,PAYLOAD,2024-02-18 21:20:55,15.08854274,0.0001153,53.2166,260.1163,77.4714,282.6407,5.6294e-05,6.09e-06,0.0,0 STARLINK-3919,1 52580U 22051AW  24049.88953084  .00000609  00000-0  56294-4 0  9999,2 52580  53.2166 260.1163 0001153  77.4714 282.6407 15.08854274 98183,6917.837,95.437,540.499,538.904,0.0
52580.0,STARLINK-3919,PAYLOAD,2024-02-18 22:56:18,15.08856044,0.0001157,53.2166,259.8192,80.1318,279.9805,7.943e-05,9.77e-06,0.0,0 STARLINK-3919,1 52580U 22051AW  24049.95576924  .00000977  00000-0  79430-4 0  9996,2 52580  53.2166 259.8192 0001157  80.1318 279.9805 15.08856044 98194,6917.831,95.437,540.497,538.896,0.0
52580.0,STARLINK-3919,PAYLOAD,2024-02-19 19:36:20,15.08838727,0.0001226,53.2148,255.95,105.7148,254.3979,0.00011807,1.592e-05,0.0,0 STARLINK-3919,1 52580U 22051AW  24050.81689896  .00001592  00000-0  11807-3 0  9993,2 52580  53.2148 255.9500 0001226 105.7148 254.3979 15.08838727 98395,6917.884,95.438,540.597,538.901,0.0
52580.0,STARLINK-3919,PAYLOAD,2024-02-19 21:11:43,15.08837703,0.0001163,53.2148,255.6529,95.4543,264.6582,0.00010274,1.348e-05,0.0,0 STARLINK-3919,1 52580U 22051AW  24050.88313970  .00001348  00000-0  10274-3 0  9993,2 52580  53.2148 255.6529 0001163  95.4543 264.6582 15.08837703 98338,6917.887,95.438,540.557,538.948,0.0
52580.0,STARLINK-3919,PAYLOAD,2024-02-20 13:05:34,15.08839792,0.0001123,53.2153,252.6804,85.2369,274.8751,6.9388e-05,8.17e-06,0.0,0 STARLINK-3919,1 52580U 22051AW  24051.54554042  .00000817  00000-0  69388-4 0  9995,2 52580  53.2153 252.6804 0001123  85.2369 274.8751 15.08839792 98438,6917.881,95.438,540.523,538.969,0.0
52580.0,STARLINK-3919,PAYLOAD,2024-02-20 21:02:30,15.08847814,0.000124,53.2147,251.1959,81.5263,278.5869,8.6101e-05,1.083e-05,0.0,0 STARLINK-3919,1 52580U 22051AW  24051.87673642  .00001083  00000-0  86101-4 0  9997,2 52580  53.2147 251.1959 0001240  81.5263 278.5869 15.08847814 98488,6917.857,95.437,540.579,538.864,0.0
52580.0,STARLINK-3919,PAYLOAD,2024-02-21 12:56:21,15.08837904,0.0001276,53.2145,248.2229,79.9662,280.1474,7.8385e-05,9.6e-06,0.0,0 STARLINK-3919,1 52580U 22051AW  24052.53914190  .00000960  00000-0  78385-4 0  9995,2 52580  53.2145 248.2229 0001276  79.9662 280.1474 15.08837904 98587,6917.887,95.438,540.635,538.869,0.0
52580.0,STARLINK-3919,PAYLOAD,2024-02-21 19:17:54,15.08837449,0.0001241,53.2154,247.0324,84.3149,275.7985,7.5717e-05,9.17e-06,0.0,0 STARLINK-3919,1 52580U 22051AW  24052.80410358  .00000917  00000-0  75717-4 0  9990,2 52580  53.2154 247.0324 0001241  84.3149 275.7985 15.08837449 98695,6917.888,95.438,540.612,538.895,0.0
52580.0,STARLINK-3919,PAYLOAD,2024-02-22 06:25:36,15.0884284,0.0001265,53.2154,244.9508,83.5573,276.5563,0.00010289,1.35e-05,0.0,0 STARLINK-3919,1 52580U 22051AW  24053.26777945  .00001350  00000-0  10289-3 0  9993,2 52580  53.2154 244.9508 0001265  83.5573 276.5563 15.08842840 98695,6917.872,95.437,540.612,538.862,0.0
52580.0,STARLINK-3919,PAYLOAD,2024-02-22 19:08:40,15.08847668,0.0001313,53.2156,242.5708,90.5079,269.6064,9.4979e-05,1.224e-05,0.0,0 STARLINK-3919,1 52580U 22051AW  24053.79769496  .00001224  00000-0  94979-4 0  9992,2 52580  53.2156 242.5708 0001313  90.5079 269.6064 15.08847668 98845,6917.857,95.437,540.63,538.814,0.0
52580.0,STARLINK-3919,PAYLOAD,2024-02-23 18:59:28,15.08840076,0.0001319,53.2161,238.109,93.1165,266.9978,0.00010035,1.31e-05,0.0,0 STARLINK-3919,1 52580U 22051AW  24054.79129949  .00001310  00000-0  10035-3 0  9992,2 52580  53.2161 238.1090 0001319  93.1165 266.9978 15.08840076 98993,6917.88,95.438,540.658,538.833,0.0
52580.0,STARLINK-3919,PAYLOAD,2024-02-23 22:10:14,15.088422,0.0001303,53.2161,237.5139,92.4231,267.691,7.6695e-05,9.33e-06,0.0,0 STARLINK-3919,1 52580U 22051AW  24054.92377811  .00000933  00000-0  76695-4 0  9995,2 52580  53.2161 237.5139 0001303  92.4231 267.6910 15.08842200 98949,6917.874,95.437,540.64,538.837,0.0
52580.0,STARLINK-3919,PAYLOAD,2024-02-24 12:28:43,15.08837559,0.0001392,53.2166,234.838,93.4674,266.6477,-6.5304e-06,-3.92e-06,0.0,0 STARLINK-3919,1 52580U 22051AW  24055.51994393 -.00000392  00000-0 -65304-5 0  9998,2 52580  53.2166 234.8380 0001392  93.4674 266.6477 15.08837559 99031,6917.888,95.438,540.716,538.79,0.0
52580.0,STARLINK-3919,PAYLOAD,2024-02-24 18:50:15,15.08842989,0.000141,53.2174,233.6491,92.5282,267.5872,4.9274e-05,4.96e-06,0.0,0 STARLINK-3919,1 52580U 22051AW  24055.78489930  .00000496  00000-0  49274-4 0  9993,2 52580  53.2174 233.6491 0001410  92.5282 267.5872 15.08842989 99072,6917.871,95.437,540.712,538.761,0.0
52580.0,STARLINK-3919,PAYLOAD,2024-02-25 04:22:34,15.08838462,0.000143,53.2148,231.8656,92.2792,267.8364,3.7825e-05,3.14e-06,0.0,0 STARLINK-3919,1 52580U 22051AW  24056.18234271  .00000314  00000-0  37825-4 0  9992,2 52580  53.2148 231.8656 0001430  92.2792 267.8364 15.08838462 99206,6917.885,95.438,540.739,538.761,0.0
52580.0,STARLINK-3919,PAYLOAD,2024-02-25 10:44:06,15.08847067,0.0001405,53.215,230.6757,103.7758,256.3391,1.1186e-05,-1.1e-06,0.0,0 STARLINK-3919,1 52580U 22051AW  24056.44729879 -.00000110  00000-0  11186-4 0  9991,2 52580  53.2150 230.6757 0001405 103.7758 256.3391 15.08847067 99170,6917.859,95.437,540.696,538.752,0.0
52580.0,STARLINK-3919,PAYLOAD,2024-02-25 18:41:01,15.08846259,0.0001317,53.217,229.1909,96.0791,264.0352,0.00013221,1.817e-05,0.0,0 STARLINK-3919,1 52580U 22051AW  24056.77849524  .00001817  00000-0  13221-3 0  9992,2 52580  53.2170 229.1909 0001317  96.0791 264.0352 15.08846259 99295,6917.861,95.437,540.637,538.815,0.0
52580.0,STARLINK-3919,PAYLOAD,2024-02-26 04:13:21,15.08836499,0.0001176,53.2148,227.4058,93.6099,266.5028,0.00012656,1.727e-05,0.0,0 STARLINK-3919,1 52580U 22051AW  24057.17594185  .00001727  00000-0  12656-3 0  9998,2 52580  53.2148 227.4058 0001176  93.6099 266.5028 15.08836499 99352,6917.891,95.438,540.57,538.943,0.0
52580.0,STARLINK-3919,PAYLOAD,2024-02-26 18:31:50,15.0883424,0.0001311,53.2155,224.7295,93.3016,266.8126,3.0467e-05,1.97e-06,0.0,0 STARLINK-3919,1 52580U 22051AW  24057.77210709  .00000197  00000-0  30467-4 0  9992,2 52580  53.2155 224.7295 0001311  93.3016 266.8126 15.08834240 99376,6917.898,95.438,540.67,538.856,0.0
52580.0,STARLINK-3919,PAYLOAD,2024-02-27 10:25:41,15.08845889,0.0001626,53.2165,221.7576,96.6387,263.479,-3.1328e-05,-7.87e-06,0.0,0 STARLINK-3919,1 52580U 22051AW  24058.43450302 -.00000787  00000-0 -31328-4 0  9995,2 52580  53.2165 221.7576 0001626  96.6387 263.4790 15.08845889 99542,6917.862,95.437,540.852,538.603,0.0
52580.0,STARLINK-3919,PAYLOAD,2024-02-27 18:22:36,15.08843801,0.0001609,53.2161,220.2697,97.7828,262.3347,5.2947e-07,-2.8e-06,0.0,0 STARLINK-3919,1 52580U 22051AW  24058.76570276 -.00000280  00000-0  52947-6 0  9993,2 52580  53.2161 220.2697 0001609  97.7828 262.3347 15.08843801 99525,6917.869,95.437,540.847,538.621,0.0
52580.0,STARLINK-3919,PAYLOAD,2024-02-28 03:54:56,15.08830723,0.0001412,53.2165,218.484,86.4882,273.6271,0.00014823,2.071e-05,0.0,0 STARLINK-3919,1 52580U 22051AW  24059.16314868  .00002071  00000-0  14823-3 0  9998,2 52580  53.2165 218.4840 0001412  86.4882 273.6271 15.08830723 99659,6917.909,95.438,540.751,538.797,0.0
52580.0,STARLINK-3919,PAYLOAD,2024-02-28 10:16:28,15.08833307,0.0001424,53.2161,217.2942,84.2043,275.9112,8.3622e-05,1.043e-05,0.0,0 STARLINK-3919,1 52580U 22051AW  24059.42810868  .00001043  00000-0  83622-4 0  9990,2 52580  53.2161 217.2942 0001424  84.2043 275.9112 15.08833307 99620,6917.901,95.438,540.751,538.781,0.0
52580.0,STARLINK-3919,PAYLOAD,2024-02-28 16:38:01,15.08835326,0.000132,53.2153,216.1043,87.1203,272.994,0.00010141,1.326e-05,0.0,0 STARLINK-3919,1 52580U 22051AW  24059.69306735  .00001326  00000-0  10141-3 0  9991,2 52580  53.2153 216.1043 0001320  87.1203 272.9940 15.08835326 99669,6917.895,95.438,540.673,538.847,0.0
52580.0,STARLINK-3919,PAYLOAD,2024-02-29 13:18:01,15.0884265,0.0001344,53.2153,212.2391,84.3443,275.7702,7.0706e-05,8.38e-06,0.0,0 STARLINK-3919,1 52580U 22051AW  24060.55418440  .00000838  00000-0  70706-4 0  9996,2 52580  53.2153 212.2391 0001344  84.3443 275.7702 15.08842650 99860,6917.872,95.437,540.667,538.808,0.0
52580.0,STARLINK-3919,PAYLOAD,2024-02-29 14:53:24,15.08843946,0.0001352,53.2155,211.9418,84.2722,275.8424,7.9914e-05,9.84e-06,0.0,0 STARLINK-3919,1 52580U 22051AW  24060.62042323  .00000984  00000-0  79914-4 0  9999,2 52580  53.2155 211.9418 0001352  84.2722 275.8424 15.08843946 99801,6917.868,95.437,540.669,538.798,0.0
52580.0,STARLINK-3919,PAYLOAD,2024-02-29 16:28:47,15.08846103,0.0001336,53.2156,211.6439,87.2721,272.8424,9.4577e-05,1.218e-05,0.0,0 STARLINK-3919,1 52580U 22051AW  24060.68666109  .00001218  00000-0  94577-4 0  9992,2 52580  53.2156 211.6439 0001336  87.2721 272.8424 15.08846103 99812,6917.862,95.437,540.651,538.803,0.0
52580.0,STARLINK-3919,PAYLOAD,2024-03-01 14:44:11,15.08841513,0.0001295,53.216,207.481,86.7911,273.3229,8.0577e-05,9.95e-06,0.0,0 STARLINK-3919,1 52580U 22051AW  24061.61402359  .00000995  00000-0  80577-4 0  9997,2 52580  53.2160 207.4810 0001295  86.7911 273.3229 15.08841513 99956,6917.876,95.437,540.637,538.845,0.0
